{
  "type": "FeatureCollection",
  "features": [
    {
      "type": "Feature",
      "properties": {
        "norad_id": 35724,
        "name": "COSMOS 2251 DEB",
        "group": "cosmos-2251-debris",
        "lat": 61.75993444013133,
        "lon": 94.17690560654363,
        "alt_km": 651.9737955860946,
        "timestamp": "2025-12-10T18:57:00.461648+00:00",
        "meta_object_name": "COSMOS 2251 DEB",
        "meta_object_id": "1993-036AQV",
        "meta_epoch": "2025-12-08T21:58:40.520064",
        "meta_mean_motion": 14.58181978,
        "meta_eccentricity": 0.0058948,
        "meta_inclination": 74.032,
        "meta_ra_of_asc_node": 309.9574,
        "meta_arg_of_pericenter": 104.7412,
        "meta_mean_anomaly": 256.0295,
        "meta_ephemeris_type": 0,
        "meta_classification_type": "U",
        "meta_norad_cat_id": 35724,
        "meta_element_set_no": 999,
        "meta_rev_at_epoch": 87473,
        "meta_bstar": 0.00038878,
        "meta_mean_motion_dot": 1.807e-05,
        "meta_mean_motion_ddot": 0,
        "tle_line1": "1 35724U 93036AQV 25342.91574676  .00001807  00000+0  38878-3 0  9995",
        "tle_line2": "2 35724  74.0320 309.9574 0058948 104.7412 256.0295 14.58181978874739"
      },
      "geometry": {
        "type": "Point",
        "coordinates": [
          94.17690560654363,
          61.75993444013133
        ]
      }
    },
    {
      "type": "Feature",
      "properties": {
        "norad_id": 35759,
        "name": "COSMOS 2251 DEB",
        "group": "cosmos-2251-debris",
        "lat": -69.35766633616967,
        "lon": 170.351282120929,
        "alt_km": 653.0263382007524,
        "timestamp": "2025-12-10T18:57:00.461660+00:00",
        "meta_object_name": "COSMOS 2251 DEB",
        "meta_object_id": "1993-036ARD",
        "meta_epoch": "2025-12-09T08:52:32.162880",
        "meta_mean_motion": 14.64874402,
        "meta_eccentricity": 0.00769193,
        "meta_inclination": 74.0373,
        "meta_ra_of_asc_node": 222.5271,
        "meta_arg_of_pericenter": 341.4527,
        "meta_mean_anomaly": 18.3839,
        "meta_ephemeris_type": 0,
        "meta_classification_type": "U",
        "meta_norad_cat_id": 35759,
        "meta_element_set_no": 999,
        "meta_rev_at_epoch": 66086,
        "meta_bstar": 0.0005052276,
        "meta_mean_motion_dot": 2.787e-05,
        "meta_mean_motion_ddot": 0,
        "tle_line1": "1 35759U 93036ARD 25343.36981670  .00002787  00000+0  50523-3 0  9998",
        "tle_line2": "2 35759  74.0373 222.5271 0076919 341.4527  18.3839 14.64874402660862"
      },
      "geometry": {
        "type": "Point",
        "coordinates": [
          170.351282120929,
          -69.35766633616967
        ]
      }
    },
    {
      "type": "Feature",
      "properties": {
        "norad_id": 35771,
        "name": "COSMOS 2251 DEB",
        "group": "cosmos-2251-debris",
        "lat": -59.44944050635174,
        "lon": -75.00202402560546,
        "alt_km": 733.6475630958821,
        "timestamp": "2025-12-10T18:57:00.461671+00:00",
        "meta_object_name": "COSMOS 2251 DEB",
        "meta_object_id": "1993-036ARR",
        "meta_epoch": "2025-12-01T22:51:30.244896",
        "meta_mean_motion": 14.12926683,
        "meta_eccentricity": 0.02319351,
        "meta_inclination": 74.1552,
        "meta_ra_of_asc_node": 329.2812,
        "meta_arg_of_pericenter": 270.0606,
        "meta_mean_anomaly": 87.396,
        "meta_ephemeris_type": 0,
        "meta_classification_type": "U",
        "meta_norad_cat_id": 35771,
        "meta_element_set_no": 999,
        "meta_rev_at_epoch": 82708,
        "meta_bstar": 0.0067662276,
        "meta_mean_motion_dot": 0.00016281,
        "meta_mean_motion_ddot": 0,
        "tle_line1": "1 35771U 93036ARR 25335.95243339  .00016281  00000+0  67662-2 0  9996",
        "tle_line2": "2 35771  74.1552 329.2812 0231935 270.0606  87.3960 14.12926683827080"
      },
      "geometry": {
        "type": "Point",
        "coordinates": [
          -75.00202402560546,
          -59.44944050635174
        ]
      }
    },
    {
      "type": "Feature",
      "properties": {
        "norad_id": 35773,
        "name": "COSMOS 2251 DEB",
        "group": "cosmos-2251-debris",
        "lat": -8.163715270542534,
        "lon": 166.9188642178401,
        "alt_km": 666.5957960962232,
        "timestamp": "2025-12-10T18:57:00.461681+00:00",
        "meta_object_name": "COSMOS 2251 DEB",
        "meta_object_id": "1993-036ART",
        "meta_epoch": "2025-12-10T00:01:47.898912",
        "meta_mean_motion": 14.62043555,
        "meta_eccentricity": 0.00456736,
        "meta_inclination": 74.008,
        "meta_ra_of_asc_node": 346.0722,
        "meta_arg_of_pericenter": 146.9218,
        "meta_mean_anomaly": 213.4821,
        "meta_ephemeris_type": 0,
        "meta_classification_type": "U",
        "meta_norad_cat_id": 35773,
        "meta_element_set_no": 999,
        "meta_rev_at_epoch": 86799,
        "meta_bstar": 0.00076822314,
        "meta_mean_motion_dot": 3.885e-05,
        "meta_mean_motion_ddot": 0,
        "tle_line1": "1 35773U 93036ART 25344.00124883  .00003885  00000+0  76822-3 0  9991",
        "tle_line2": "2 35773  74.0080 346.0722 0045673 146.9218 213.4821 14.62043555867991"
      },
      "geometry": {
        "type": "Point",
        "coordinates": [
          166.9188642178401,
          -8.163715270542534
        ]
      }
    },
    {
      "type": "Feature",
      "properties": {
        "norad_id": 35777,
        "name": "COSMOS 2251 DEB",
        "group": "cosmos-2251-debris",
        "lat": 62.112401791710106,
        "lon": 112.46402393189175,
        "alt_km": 1188.7340540075793,
        "timestamp": "2025-12-10T18:57:00.461691+00:00",
        "meta_object_name": "COSMOS 2251 DEB",
        "meta_object_id": "1993-036ARX",
        "meta_epoch": "2025-12-08T17:08:57.000768",
        "meta_mean_motion": 13.41299794,
        "meta_eccentricity": 0.04525672,
        "meta_inclination": 73.7701,
        "meta_ra_of_asc_node": 329.172,
        "meta_arg_of_pericenter": 224.5904,
        "meta_mean_anomaly": 317.2432,
        "meta_ephemeris_type": 0,
        "meta_classification_type": "U",
        "meta_norad_cat_id": 35777,
        "meta_element_set_no": 999,
        "meta_rev_at_epoch": 79630,
        "meta_bstar": 0.0009131429,
        "meta_mean_motion_dot": 9.04e-06,
        "meta_mean_motion_ddot": 0,
        "tle_line1": "1 35777U 93036ARX 25342.71454862  .00000904  00000+0  91314-3 0  9996",
        "tle_line2": "2 35777  73.7701 329.1720 0452567 224.5904 317.2432 13.41299794796301"
      },
      "geometry": {
        "type": "Point",
        "coordinates": [
          112.46402393189175,
          62.112401791710106
        ]
      }
    },
    {
      "type": "Feature",
      "properties": {
        "norad_id": 35784,
        "name": "COSMOS 2251 DEB",
        "group": "cosmos-2251-debris",
        "lat": -65.73028840116454,
        "lon": 53.95847345611386,
        "alt_km": 718.7188034645696,
        "timestamp": "2025-12-10T18:57:00.461701+00:00",
        "meta_object_name": "COSMOS 2251 DEB",
        "meta_object_id": "1993-036ASE",
        "meta_epoch": "2025-12-08T14:17:36.853152",
        "meta_mean_motion": 14.50025184,
        "meta_eccentricity": 0.0042468,
        "meta_inclination": 74.0364,
        "meta_ra_of_asc_node": 97.4864,
        "meta_arg_of_pericenter": 229.9837,
        "meta_mean_anomaly": 129.7594,
        "meta_ephemeris_type": 0,
        "meta_classification_type": "U",
        "meta_norad_cat_id": 35784,
        "meta_element_set_no": 999,
        "meta_rev_at_epoch": 65646,
        "meta_bstar": 0.00067524,
        "meta_mean_motion_dot": 2.619e-05,
        "meta_mean_motion_ddot": 0,
        "tle_line1": "1 35784U 93036ASE 25342.59556543  .00002619  00000+0  67524-3 0  9990",
        "tle_line2": "2 35784  74.0364  97.4864 0042468 229.9837 129.7594 14.50025184656469"
      },
      "geometry": {
        "type": "Point",
        "coordinates": [
          53.95847345611386,
          -65.73028840116454
        ]
      }
    },
    {
      "type": "Feature",
      "properties": {
        "norad_id": 35786,
        "name": "COSMOS 2251 DEB",
        "group": "cosmos-2251-debris",
        "lat": 73.77293804081721,
        "lon": 147.4769886503024,
        "alt_km": 663.6971400686834,
        "timestamp": "2025-12-10T18:57:00.461711+00:00",
        "meta_object_name": "COSMOS 2251 DEB",
        "meta_object_id": "1993-036ASG",
        "meta_epoch": "2025-12-09T11:24:46.077120",
        "meta_mean_motion": 14.66167214,
        "meta_eccentricity": 0.00343345,
        "meta_inclination": 74.0142,
        "meta_ra_of_asc_node": 50.0685,
        "meta_arg_of_pericenter": 180.7191,
        "meta_mean_anomaly": 179.3935,
        "meta_ephemeris_type": 0,
        "meta_classification_type": "U",
        "meta_norad_cat_id": 35786,
        "meta_element_set_no": 999,
        "meta_rev_at_epoch": 73360,
        "meta_bstar": 0.0015474252,
        "meta_mean_motion_dot": 8.565e-05,
        "meta_mean_motion_ddot": 0,
        "tle_line1": "1 35786U 93036ASG 25343.47553330  .00008565  00000+0  15474-2 0  9993",
        "tle_line2": "2 35786  74.0142  50.0685 0034334 180.7191 179.3935 14.66167214733601"
      },
      "geometry": {
        "type": "Point",
        "coordinates": [
          147.4769886503024,
          73.77293804081721
        ]
      }
    }
  ]
}